[{"OBJECT_NAME":"STARLINK-34192","OBJECT_ID":"2025-101W","EPOCH":"2025-10-02T09:45:45.663264","MEAN_MOTION":15.27591089,"ECCENTRICITY":0.0001324,"INCLINATION":42.999,"RA_OF_ASC_NODE":172.2242,"ARG_OF_PERICENTER":262.5973,"MEAN_ANOMALY":97.4728,"EPHEMERIS_TYPE":0,"CLASSIFICATION_TYPE":"U","NORAD_CAT_ID":64014,"ELEMENT_SET_NO":999,"REV_AT_EPOCH":2284,"BSTAR":0.0025336,"MEAN_MOTION_DOT":0.00070147,"MEAN_MOTION_DDOT":0},{"OBJECT_NAME":"STARLINK-34093","OBJECT_ID":"2025-101X","EPOCH":"2025-10-03T02:00:25.703712","MEAN_MOTION":15.27631491,"ECCENTRICITY":0.00015289,"INCLINATION":43.0013,"RA_OF_ASC_NODE":167.842,"ARG_OF_PERICENTER":257.5241,"MEAN_ANOMALY":102.544,"EPHEMERIS_TYPE":0,"CLASSIFICATION_TYPE":"U","NORAD_CAT_ID":64015,"ELEMENT_SET_NO":999,"REV_AT_EPOCH":2295,"BSTAR":0.0026099612,"MEAN_MOTION_DOT":0.0007238,"MEAN_MOTION_DDOT":0},{"OBJECT_NAME":"STARLINK-34016","OBJECT_ID":"2025-101Y","EPOCH":"2025-10-02T10:11:26.949408","MEAN_MOTION":15.27564738,"ECCENTRICITY":0.0001145,"INCLINATION":43.0032,"RA_OF_ASC_NODE":171.4964,"ARG_OF_PERICENTER":257.5281,"MEAN_ANOMALY":102.5443,"EPHEMERIS_TYPE":0,"CLASSIFICATION_TYPE":"U","NORAD_CAT_ID":64016,"ELEMENT_SET_NO":999,"REV_AT_EPOCH":2285,"BSTAR":0.0016751,"MEAN_MOTION_DOT":0.00046099,"MEAN_MOTION_DDOT":0},{"OBJECT_NAME":"STARLINK-34161","OBJECT_ID":"2025-101Z","EPOCH":"2025-10-03T02:05:57.370848","MEAN_MOTION":15.27624003,"ECCENTRICITY":0.00013286,"INCLINATION":43.002,"RA_OF_ASC_NODE":167.8726,"ARG_OF_PERICENTER":320.2167,"MEAN_ANOMALY":39.8587,"EPHEMERIS_TYPE":0,"CLASSIFICATION_TYPE":"U","NORAD_CAT_ID":64017,"ELEMENT_SET_NO":999,"REV_AT_EPOCH":2295,"BSTAR":0.0016101049,"MEAN_MOTION_DOT":0.00044371,"MEAN_MOTION_DDOT":0},{"OBJECT_NAME":"STARLINK-34162","OBJECT_ID":"2025-101AA","EPOCH":"2025-10-03T02:24:27.628992","MEAN_MOTION":15.27595871,"ECCENTRICITY":0.00017534,"INCLINATION":43.0036,"RA_OF_ASC_NODE":167.9704,"ARG_OF_PERICENTER":286.1059,"MEAN_ANOMALY":73.9599,"EPHEMERIS_TYPE":0,"CLASSIFICATION_TYPE":"U","NORAD_CAT_ID":64018,"ELEMENT_SET_NO":999,"REV_AT_EPOCH":2295,"BSTAR":0.0015126852,"MEAN_MOTION_DOT":0.00041619,"MEAN_MOTION_DDOT":0},{"OBJECT_NAME":"STARLINK-34155","OBJECT_ID":"2025-101AB","EPOCH":"2025-10-03T02:35:34.119456","MEAN_MOTION":15.2762352,"ECCENTRICITY":9.345e-5,"INCLINATION":43.0018,"RA_OF_ASC_NODE":168.025,"ARG_OF_PERICENTER":314.709,"MEAN_ANOMALY":45.3686,"EPHEMERIS_TYPE":0,"CLASSIFICATION_TYPE":"U","NORAD_CAT_ID":64019,"ELEMENT_SET_NO":999,"REV_AT_EPOCH":2295,"BSTAR":0.0016816083,"MEAN_MOTION_DOT":0.00046365,"MEAN_MOTION_DDOT":0},{"OBJECT_NAME":"STARLINK-34141","OBJECT_ID":"2025-101AC","EPOCH":"2025-10-03T02:30:00.407232","MEAN_MOTION":15.27618126,"ECCENTRICITY":0.00025309,"INCLINATION":43.0017,"RA_OF_ASC_NODE":167.9957,"ARG_OF_PERICENTER":259.5637,"MEAN_ANOMALY":100.493,"EPHEMERIS_TYPE":0,"CLASSIFICATION_TYPE":"U","NORAD_CAT_ID":64020,"ELEMENT_SET_NO":999,"REV_AT_EPOCH":2295,"BSTAR":0.0016845709,"MEAN_MOTION_DOT":0.00046442,"MEAN_MOTION_DDOT":0},{"OBJECT_NAME":"STARLINK-34062","OBJECT_ID":"2025-101AD","EPOCH":"2025-10-03T01:58:33.910752","MEAN_MOTION":15.27626628,"ECCENTRICITY":0.00010162,"INCLINATION":42.9968,"RA_OF_ASC_NODE":167.8296,"ARG_OF_PERICENTER":68.1465,"MEAN_ANOMALY":291.9495,"EPHEMERIS_TYPE":0,"CLASSIFICATION_TYPE":"U","NORAD_CAT_ID":64021,"ELEMENT_SET_NO":999,"REV_AT_EPOCH":2295,"BSTAR":0.0016753705,"MEAN_MOTION_DOT":0.00046195,"MEAN_MOTION_DDOT":0},{"OBJECT_NAME":"STARLINK-34051","OBJECT_ID":"2025-102A","EPOCH":"2025-10-03T01:54:04.029120","MEAN_MOTION":14.98321337,"ECCENTRICITY":0.00031268,"INCLINATION":70.0018,"RA_OF_ASC_NODE":151.8511,"ARG_OF_PERICENTER":276.2776,"MEAN_ANOMALY":83.8027,"EPHEMERIS_TYPE":0,"CLASSIFICATION_TYPE":"U","NORAD_CAT_ID":64022,"ELEMENT_SET_NO":999,"REV_AT_EPOCH":2234,"BSTAR":-0.0013116938,"MEAN_MOTION_DOT":-0.00015706,"MEAN_MOTION_DDOT":0},{"OBJECT_NAME":"STARLINK-34184","OBJECT_ID":"2025-102B","EPOCH":"2025-10-03T02:17:54.368160","MEAN_MOTION":14.9833531,"ECCENTRICITY":0.00029104,"INCLINATION":70.0022,"RA_OF_ASC_NODE":151.9076,"ARG_OF_PERICENTER":268.682,"MEAN_ANOMALY":91.4005,"EPHEMERIS_TYPE":0,"CLASSIFICATION_TYPE":"U","NORAD_CAT_ID":64023,"ELEMENT_SET_NO":999,"REV_AT_EPOCH":2235,"BSTAR":0.00062997484,"MEAN_MOTION_DOT":7.433e-5,"MEAN_MOTION_DDOT":0},{"OBJECT_NAME":"STARLINK-34087","OBJECT_ID":"2025-102C","EPOCH":"2025-10-03T01:29:48.589152","MEAN_MOTION":14.98313765,"ECCENTRICITY":0.00031889,"INCLINATION":70.0018,"RA_OF_ASC_NODE":151.7887,"ARG_OF_PERICENTER":267.1525,"MEAN_ANOMALY":92.9269,"EPHEMERIS_TYPE":0,"CLASSIFICATION_TYPE":"U","NORAD_CAT_ID":64024,"ELEMENT_SET_NO":999,"REV_AT_EPOCH":2223,"BSTAR":0.00022064106,"MEAN_MOTION_DOT":2.54e-5,"MEAN_MOTION_DDOT":0},{"OBJECT_NAME":"STARLINK-34088","OBJECT_ID":"2025-102D","EPOCH":"2025-10-03T00:54:00.729216","MEAN_MOTION":14.98354432,"ECCENTRICITY":0.00030232,"INCLINATION":70.0015,"RA_OF_ASC_NODE":152.1002,"ARG_OF_PERICENTER":263.8492,"MEAN_ANOMALY":96.2322,"EPHEMERIS_TYPE":0,"CLASSIFICATION_TYPE":"U","NORAD_CAT_ID":64025,"ELEMENT_SET_NO":999,"REV_AT_EPOCH":2234,"BSTAR":0.00093849547,"MEAN_MOTION_DOT":0.0001113,"MEAN_MOTION_DDOT":0},{"OBJECT_NAME":"STARLINK-33992","OBJECT_ID":"2025-102E","EPOCH":"2025-10-03T01:05:48.704640","MEAN_MOTION":14.98324091,"ECCENTRICITY":0.00029952,"INCLINATION":70.0017,"RA_OF_ASC_NODE":152.1345,"ARG_OF_PERICENTER":272.7187,"MEAN_ANOMALY":87.3629,"EPHEMERIS_TYPE":0,"CLASSIFICATION_TYPE":"U","NORAD_CAT_ID":64026,"ELEMENT_SET_NO":999,"REV_AT_EPOCH":2242,"BSTAR":0.00069416145,"MEAN_MOTION_DOT":8.198e-5,"MEAN_MOTION_DDOT":0},{"OBJECT_NAME":"STARLINK-33967","OBJECT_ID":"2025-102F","EPOCH":"2025-10-03T01:53:51.531360","MEAN_MOTION":14.98342746,"ECCENTRICITY":0.00029093,"INCLINATION":70.0019,"RA_OF_ASC_NODE":151.8465,"ARG_OF_PERICENTER":267.471,"MEAN_ANOMALY":92.6116,"EPHEMERIS_TYPE":0,"CLASSIFICATION_TYPE":"U","NORAD_CAT_ID":64027,"ELEMENT_SET_NO":999,"REV_AT_EPOCH":2228,"BSTAR":0.00072184175,"MEAN_MOTION_DOT":8.533e-5,"MEAN_MOTION_DDOT":0},{"OBJECT_NAME":"STARLINK-33953","OBJECT_ID":"2025-102G","EPOCH":"2025-10-03T01:11:45.779424","MEAN_MOTION":14.98324756,"ECCENTRICITY":0.00030715,"INCLINATION":70.0023,"RA_OF_ASC_NODE":151.7441,"ARG_OF_PERICENTER":270.6026,"MEAN_ANOMALY":89.4781,"EPHEMERIS_TYPE":0,"CLASSIFICATION_TYPE":"U","NORAD_CAT_ID":64028,"ELEMENT_SET_NO":999,"REV_AT_EPOCH":2244,"BSTAR":-0.00079281267,"MEAN_MOTION_DOT":-9.539e-5,"MEAN_MOTION_DDOT":0},{"OBJECT_NAME":"STARLINK-33790","OBJECT_ID":"2025-102H","EPOCH":"2025-10-03T02:12:07.812576","MEAN_MOTION":14.98340478,"ECCENTRICITY":0.00029191,"INCLINATION":70.0018,"RA_OF_ASC_NODE":151.8869,"ARG_OF_PERICENTER":269.7906,"MEAN_ANOMALY":90.2919,"EPHEMERIS_TYPE":0,"CLASSIFICATION_TYPE":"U","NORAD_CAT_ID":64029,"ELEMENT_SET_NO":999,"REV_AT_EPOCH":2239,"BSTAR":0.00061933847,"MEAN_MOTION_DOT":7.307e-5,"MEAN_MOTION_DDOT":0},{"OBJECT_NAME":"STARLINK-34030","OBJECT_ID":"2025-102J","EPOCH":"2025-10-03T02:29:55.103136","MEAN_MOTION":14.9834614,"ECCENTRICITY":0.00034762,"INCLINATION":70.0006,"RA_OF_ASC_NODE":151.9369,"ARG_OF_PERICENTER":266.8808,"MEAN_ANOMALY":93.1953,"EPHEMERIS_TYPE":0,"CLASSIFICATION_TYPE":"U","NORAD_CAT_ID":64030,"ELEMENT_SET_NO":999,"REV_AT_EPOCH":2235,"BSTAR":0.00018023988,"MEAN_MOTION_DOT":2.059e-5,"MEAN_MOTION_DDOT":0},{"OBJECT_NAME":"STARLINK-34024","OBJECT_ID":"2025-102K","EPOCH":"2025-10-03T02:05:53.010240","MEAN_MOTION":14.98338958,"ECCENTRICITY":0.00028869,"INCLINATION":70.0018,"RA_OF_ASC_NODE":151.8759,"ARG_OF_PERICENTER":274.8802,"MEAN_ANOMALY":85.2027,"EPHEMERIS_TYPE":0,"CLASSIFICATION_TYPE":"U","NORAD_CAT_ID":64031,"ELEMENT_SET_NO":999,"REV_AT_EPOCH":2228,"BSTAR":0.00071257577,"MEAN_MOTION_DOT":8.422e-5,"MEAN_MOTION_DDOT":0},{"OBJECT_NAME":"STARLINK-34019","OBJECT_ID":"2025-102L","EPOCH":"2025-10-03T01:23:48.303744","MEAN_MOTION":14.98336389,"ECCENTRICITY":0.00032312,"INCLINATION":70.0022,"RA_OF_ASC_NODE":151.7736,"ARG_OF_PERICENTER":268.5569,"MEAN_ANOMALY":91.522,"EPHEMERIS_TYPE":0,"CLASSIFICATION_TYPE":"U","NORAD_CAT_ID":64032,"ELEMENT_SET_NO":999,"REV_AT_EPOCH":2235,"BSTAR":0.00093262681,"MEAN_MOTION_DOT":0.00011054,"MEAN_MOTION_DDOT":0},{"OBJECT_NAME":"STARLINK-33860","OBJECT_ID":"2025-102M","EPOCH":"2025-10-03T01:41:50.408448","MEAN_MOTION":14.98340016,"ECCENTRICITY":0.00030433,"INCLINATION":70.002,"RA_OF_ASC_NODE":151.8176,"ARG_OF_PERICENTER":269.1084,"MEAN_ANOMALY":90.9727,"EPHEMERIS_TYPE":0,"CLASSIFICATION_TYPE":"U","NORAD_CAT_ID":64033,"ELEMENT_SET_NO":999,"REV_AT_EPOCH":2235,"BSTAR":0.00074715745,"MEAN_MOTION_DOT":8.836e-5,"MEAN_MOTION_DDOT":0},{"OBJECT_NAME":"STARLINK-33946","OBJECT_ID":"2025-102N","EPOCH":"2025-10-03T01:48:05.838912","MEAN_MOTION":14.98328614,"ECCENTRICITY":0.00026807,"INCLINATION":70.002,"RA_OF_ASC_NODE":151.8351,"ARG_OF_PERICENTER":265.1029,"MEAN_ANOMALY":94.9824,"EPHEMERIS_TYPE":0,"CLASSIFICATION_TYPE":"U","NORAD_CAT_ID":64034,"ELEMENT_SET_NO":999,"REV_AT_EPOCH":2239,"BSTAR":0.00083403214,"MEAN_MOTION_DOT":9.872e-5,"MEAN_MOTION_DDOT":0},{"OBJECT_NAME":"STARLINK-34046","OBJECT_ID":"2025-102P","EPOCH":"2025-10-03T01:00:01.593504","MEAN_MOTION":14.98338709,"ECCENTRICITY":0.00027185,"INCLINATION":70.0023,"RA_OF_ASC_NODE":152.0014,"ARG_OF_PERICENTER":268.2865,"MEAN_ANOMALY":91.7983,"EPHEMERIS_TYPE":0,"CLASSIFICATION_TYPE":"U","NORAD_CAT_ID":64035,"ELEMENT_SET_NO":999,"REV_AT_EPOCH":2211,"BSTAR":0.00055239138,"MEAN_MOTION_DOT":6.506e-5,"MEAN_MOTION_DDOT":0},{"OBJECT_NAME":"STARLINK-34085","OBJECT_ID":"2025-102Q","EPOCH":"2025-10-03T02:18:08.504928","MEAN_MOTION":14.98336849,"ECCENTRICITY":0.00027915,"INCLINATION":70.0022,"RA_OF_ASC_NODE":151.9017,"ARG_OF_PERICENTER":271.227,"MEAN_ANOMALY":88.857,"EPHEMERIS_TYPE":0,"CLASSIFICATION_TYPE":"U","NORAD_CAT_ID":64036,"ELEMENT_SET_NO":999,"REV_AT_EPOCH":2234,"BSTAR":0.0006180086,"MEAN_MOTION_DOT":7.29e-5,"MEAN_MOTION_DDOT":0}]
